NORAD_CAT_ID,OBJECT_NAME,OBJECT_TYPE,EPOCH,MEAN_MOTION,ECCENTRICITY,INCLINATION,RA_OF_ASC_NODE,ARG_OF_PERICENTER,MEAN_ANOMALY,BSTAR,MEAN_MOTION_DOT,MEAN_MOTION_DDOT,TLE_LINE0,TLE_LINE1,TLE_LINE2,SEMIMAJOR_AXIS,PERIOD,APOGEE,PERIGEE,DECAYED
53248.0,STARLINK-4135,PAYLOAD,2023-01-11 14:09:42,15.08831728,0.0001794,53.217,335.5919,52.465,307.6505,-4.0129e-05,-9.27e-06,0.0,0 STARLINK-4135,1 53248U 22086G   23011.59006979 -.00000927  00000-0 -40129-4 0  9992,2 53248  53.2170 335.5919 0001794  52.4650 307.6505 15.08831728 26737,6917.906,95.438,541.012,538.53,0.0
53248.0,STARLINK-4135,PAYLOAD,2023-01-11 20:31:14,15.08825103,0.0001735,53.218,334.4067,64.6705,295.4466,-2.3626e-05,-6.64e-06,0.0,0 STARLINK-4135,1 53248U 22086G   23011.85503440 -.00000664  00000-0 -23626-4 0  9997,2 53248  53.2180 334.4067 0001735  64.6705 295.4466 15.08825103 27271,6917.926,95.438,540.991,538.591,0.0
53248.0,STARLINK-4135,PAYLOAD,2023-01-12 04:28:11,15.0882475,0.000145,53.2167,332.9193,60.1929,299.9207,-9.8885e-06,-4.45e-06,0.0,0 STARLINK-4135,1 53248U 22086G   23012.18623895 -.00000445  00000-0 -98885-5 0  9998,2 53248  53.2167 332.9193 0001450  60.1929 299.9207 15.08824750 26821,6917.927,95.439,540.795,538.789,0.0
53248.0,STARLINK-4135,PAYLOAD,2023-01-12 21:57:25,15.08828344,0.0001456,53.2159,329.6446,62.1017,298.0123,2.5913e-06,-2.47e-06,0.0,0 STARLINK-4135,1 53248U 22086G   23012.91488217 -.00000247  00000-0  25913-5 0  9997,2 53248  53.2159 329.6446 0001456  62.1017 298.0123 15.08828344 27430,6917.916,95.438,540.788,538.774,0.0
53248.0,STARLINK-4135,PAYLOAD,2023-01-13 02:43:34,15.08838427,0.0001404,53.2153,328.7535,64.5769,295.5368,0.00014694,2.051e-05,0.0,0 STARLINK-4135,1 53248U 22086G   23013.11359771  .00002051  00000-0  14694-3 0  9998,2 53248  53.2153 328.7535 0001404  64.5769 295.5368 15.08838427 26969,6917.885,95.438,540.721,538.779,0.0
53248.0,STARLINK-4135,PAYLOAD,2023-01-13 13:51:16,15.08843178,0.0001549,53.2166,326.6716,74.4897,285.6266,0.00015181,2.129e-05,0.0,0 STARLINK-4135,1 53248U 22086G   23013.57727656  .00002129  00000-0  15181-3 0  9997,2 53248  53.2166 326.6716 0001549  74.4897 285.6266 15.08843178 27533,6917.871,95.437,540.807,538.664,0.0
53248.0,STARLINK-4135,PAYLOAD,2023-01-13 21:48:12,15.08841556,0.0001305,53.2161,325.1861,81.8451,278.2689,0.00033178,4.997e-05,0.0,0 STARLINK-4135,1 53248U 22086G   23013.90847852  .00004997  00000-0  33178-3 0  9996,2 53248  53.2161 325.1861 0001305  81.8451 278.2689 15.08841556 27581,6917.876,95.437,540.643,538.8380000000001,0.0
53248.0,STARLINK-4135,PAYLOAD,2023-01-14 05:45:07,15.08858827,0.0001325,53.2157,323.6969,85.7751,274.3393,0.00043764,6.688e-05,0.0,0 STARLINK-4135,1 53248U 22086G   23014.23966989  .00006688  00000-0  43764-3 0  9997,2 53248  53.2157 323.6969 0001325  85.7751 274.3393 15.08858827 27135,6917.823,95.436,540.604,538.771,0.0
53248.0,STARLINK-4135,PAYLOAD,2023-01-14 13:42:04,15.08836845,0.0002268,53.2153,322.2115,76.6326,283.4919,9.0222e-05,1.148e-05,0.0,0 STARLINK-4135,1 53248U 22086G   23014.57088536  .00001148  00000-0  90222-4 0  9995,2 53248  53.2153 322.2115 0002268  76.6326 283.4919 15.08836845 27189,6917.89,95.438,541.3240000000001,538.186,0.0
53248.0,STARLINK-4135,PAYLOAD,2023-01-15 02:25:08,15.0884689,0.0001889,53.2151,319.8344,73.8329,286.2871,0.00018225,2.614e-05,0.0,0 STARLINK-4135,1 53248U 22086G   23015.10079768  .00002614  00000-0  18225-3 0  9993,2 53248  53.2151 319.8344 0001889  73.8329 286.2871 15.08846890 27261,6917.859,95.437,541.031,538.418,0.0
53248.0,STARLINK-4135,PAYLOAD,2023-01-15 05:35:55,15.08847426,0.0001955,53.214,319.2391,66.7961,293.3237,0.00013044,1.789e-05,0.0,0 STARLINK-4135,1 53248U 22086G   23015.23327784  .00001789  00000-0  13044-3 0  9997,2 53248  53.2140 319.2391 0001955  66.7961 293.3237 15.08847426 27780,6917.858,95.437,541.075,538.37,0.0
53248.0,STARLINK-4135,PAYLOAD,2023-01-16 03:51:19,15.08851081,0.0001326,53.215,315.0738,92.5499,267.5645,0.00028901,4.316e-05,0.0,0 STARLINK-4135,1 53248U 22086G   23016.16063807  .00004316  00000-0  28901-3 0  9990,2 53248  53.2150 315.0738 0001326  92.5499 267.5645 15.08851081 27424,6917.847,95.437,540.629,538.794,0.0
53248.0,STARLINK-4135,PAYLOAD,2023-01-16 05:26:42,15.0885321,0.0001408,53.2153,314.7764,90.7412,269.3741,0.00080592,0.00012566,0.0,0 STARLINK-4135,1 53248U 22086G   23016.22688026  .00012566  00000-0  80592-3 0  9993,2 53248  53.2153 314.7764 0001408  90.7412 269.3741 15.08853210 27937,6917.84,95.437,540.679,538.731,0.0
53248.0,STARLINK-4135,PAYLOAD,2023-01-16 13:23:38,15.08832946,0.00018,53.216,313.2899,75.5156,284.6036,0.00022062,3.224e-05,0.0,0 STARLINK-4135,1 53248U 22086G   23016.55808855  .00003224  00000-0  22062-3 0  9992,2 53248  53.2160 313.2899 0001800  75.5156 284.6036 15.08832946 27480,6917.901999999999,95.438,541.012,538.5219999999999,0.0
53248.0,STARLINK-4135,PAYLOAD,2023-01-17 05:17:30,15.08843116,0.0001501,53.215,310.3166,71.6439,288.4716,0.00062867,9.732e-05,0.0,0 STARLINK-4135,1 53248U 22086G   23017.22048798  .00009732  00000-0  62867-3 0  9996,2 53248  53.2150 310.3166 0001501  71.6439 288.4716 15.08843116 28088,6917.871,95.437,540.774,538.697,0.0
53248.0,STARLINK-4135,PAYLOAD,2023-01-17 22:46:44,15.08846423,0.0001462,53.2152,307.0452,72.7258,287.3894,0.00036957,5.6000000000000006e-05,0.0,0 STARLINK-4135,1 53248U 22086G   23017.94912888  .00005600  00000-0  36957-3 0  9996,2 53248  53.2152 307.0452 0001462  72.7258 287.3894 15.08846423 27693,6917.861,95.437,540.737,538.714,0.0
53248.0,STARLINK-4135,PAYLOAD,2023-01-18 11:29:49,15.08858634,0.0001433,53.2159,304.6652,65.6411,294.4731,0.00048792,7.49e-05,0.0,0 STARLINK-4135,1 53248U 22086G   23018.47904301  .00007490  00000-0  48792-3 0  9995,2 53248  53.2159 304.6652 0001433  65.6411 294.4731 15.08858634 28276,6917.823,95.436,540.68,538.697,0.0
53248.0,STARLINK-4135,PAYLOAD,2023-01-19 03:23:39,15.0886672,0.0001325,53.2159,301.6903,68.1677,291.9456,0.00042411,6.473e-05,0.0,0 STARLINK-4135,1 53248U 22086G   23019.14143151  .00006473  00000-0  42411-3 0  9990,2 53248  53.2159 301.6903 0001325  68.1677 291.9456 15.08866720 27870,6917.799,95.436,540.58,538.747,0.0
53248.0,STARLINK-4135,PAYLOAD,2023-01-19 11:20:36,15.08835744,0.0001797,53.216,300.2012,74.0553,286.0637,-5.9323e-05,-1.232e-05,0.0,0 STARLINK-4135,1 53248U 22086G   23019.47264722 -.00001232  00000-0 -59323-4 0  9995,2 53248  53.2160 300.2012 0001797  74.0553 286.0637 15.08835744 27924,6917.893,95.438,541.002,538.515,0.0
53248.0,STARLINK-4135,PAYLOAD,2023-01-20 01:39:04,15.08830804,0.0001868,53.2155,297.5251,68.3057,291.8134,-0.00026684,-4.531e-05,0.0,0 STARLINK-4135,1 53248U 22086G   23020.06880639 -.00004531  00000-0 -26684-3 0  9991,2 53248  53.2155 297.5251 0001868  68.3057 291.8134 15.08830804 28519,6917.908,95.438,541.066,538.481,0.0
53248.0,STARLINK-4135,PAYLOAD,2023-01-20 12:46:46,15.08838605,0.0001333,53.2157,295.4498,108.3097,251.804,6.4651e-05,7.41e-06,0.0,0 STARLINK-4135,1 53248U 22086G   23020.53248654  .00000741  00000-0  64651-4 0  9992,2 53248  53.2157 295.4498 0001333 108.3097 251.8040 15.08838605 28088,6917.885,95.438,540.672,538.827,0.0
53248.0,STARLINK-4135,PAYLOAD,2023-01-22 12:28:21,15.08845556,0.0001631,53.2129,286.527,90.952,269.1659,0.00021167,3.083e-05,0.0,0 STARLINK-4135,1 53248U 22086G   23022.51968986  .00003083  00000-0  21167-3 0  9995,2 53248  53.2129 286.5270 0001631  90.9520 269.1659 15.08845556 28388,6917.863,95.437,540.857,538.6,0.0
53248.0,STARLINK-4135,PAYLOAD,2023-01-22 17:14:31,15.08828227,0.0001504,53.2133,285.6334,100.7027,259.4135,-0.00013859,-2.492e-05,0.0,0 STARLINK-4135,1 53248U 22086G   23022.71841471 -.00002492  00000-0 -13859-3 0  9990,2 53248  53.2133 285.6334 0001504 100.7027 259.4135 15.08828227 28416,6917.916,95.438,540.822,538.741,0.0
53248.0,STARLINK-4135,PAYLOAD,2023-01-22 23:36:03,15.0883721,0.0001219,53.2147,284.4449,103.1623,256.9506,4.1325e-05,3.700000000000001e-06,0.0,0 STARLINK-4135,1 53248U 22086G   23022.98337260  .00000370  00000-0  41325-4 0  9996,2 53248  53.2147 284.4449 0001219 103.1623 256.9506 15.08837210 28457,6917.889,95.438,540.597,538.911,0.0
53248.0,STARLINK-4135,PAYLOAD,2023-01-24 02:37:36,15.08850577,0.0001339,53.2143,279.3898,88.167,271.9475,0.00054891,8.461e-05,0.0,0 STARLINK-4135,1 53248U 22086G   23024.10944892  .00008461  00000-0  54891-3 0  9997,2 53248  53.2143 279.3898 0001339  88.1670 271.9475 15.08850577 28623,6917.848000000001,95.437,540.639,538.7869999999999,0.0
53248.0,STARLINK-4135,PAYLOAD,2023-01-24 12:09:55,15.08835507,0.0001185,53.214,277.607,86.7026,273.4102,0.00018144,2.601e-05,0.0,0 STARLINK-4135,1 53248U 22086G   23024.50689668  .00002601  00000-0  18144-3 0  9999,2 53248  53.2140 277.6070 0001185  86.7026 273.4102 15.08835507 28687,6917.894,95.438,540.5790000000001,538.939,0.0
53248.0,STARLINK-4135,PAYLOAD,2023-01-25 02:28:23,15.08857848,0.0001161,53.2135,274.9284,101.4757,258.6365,0.00047469,7.279e-05,0.0,0 STARLINK-4135,1 53248U 22086G   23025.10304787  .00007279  00000-0  47469-3 0  9990,2 53248  53.2135 274.9284 0001161 101.4757 258.6365 15.08857848 28776,6917.826,95.436,540.494,538.888,0.0
53248.0,STARLINK-4135,PAYLOAD,2023-01-25 12:00:42,15.08840446,0.0001038,53.2136,273.1456,88.167,271.9441,5.3076000000000005e-05,5.57e-06,0.0,0 STARLINK-4135,1 53248U 22086G   23025.50049102  .00000557  00000-0  53076-4 0  9995,2 53248  53.2136 273.1456 0001038  88.1670 271.9441 15.08840446 28833,6917.879,95.438,540.462,539.026,0.0
53248.0,STARLINK-4135,PAYLOAD,2023-01-25 19:57:38,15.08837614,0.0001016,53.2141,271.6603,84.0426,276.0682,8.195899999999999e-05,1.017e-05,0.0,0 STARLINK-4135,1 53248U 22086G   23025.83169339  .00001017  00000-0  81959-4 0  9999,2 53248  53.2141 271.6603 0001016  84.0426 276.0682 15.08837614 29383,6917.888000000001,95.438,540.456,539.05,0.0
